CSS (TIANHE)            
1 48274U 21035A   23337.10256304  .00031197  00000+0  33286-3 0  9990
2 48274  41.4703 207.2587 0007853 266.1969  93.7973 15.63229557148241
